H1 CPF 01  gfz 2021 09 29 12  7721 tandemx   
H2 1003001  6202 36605    2021 09 29 12 59 42 2021 10 04 00 00 42   120 1 1  0 0 0
H9
10 0 59488  56142.000000  0    1197792.404   -216219.774   6769205.611
10 0 59488  56262.000000  0     461938.229   -766869.716   6819138.113
10 0 59488  56382.000000  0    -291379.313  -1291108.751   6749252.721
10 0 59488  56502.000000  0   -1048473.885  -1779602.840   6560770.862
10 0 59488  56622.000000  0   -1795434.599  -2223879.197   6256983.843
10 0 59488  56742.000000  0   -2518379.177  -2616472.673   5843198.626
10 0 59488  56862.000000  0   -3203711.906  -2951053.096   5326653.570
10 0 59488  56982.000000  0   -3838384.305  -3222531.174   4716398.307
10 0 59488  57102.000000  0   -4410148.218  -3427138.245   4023138.724
10 0 59488  57222.000000  0   -4907797.282  -3562479.345   3259052.541
10 0 59488  57342.000000  0   -5321392.575  -3627558.751   2437577.696
10 0 59488  57462.000000  0   -5642468.400  -3622778.004   1573175.140
10 0 59488  57582.000000  0   -5864210.853  -3549904.495    681068.932
10 0 59488  57702.000000  0   -5981604.686  -3412010.968   -223028.911
10 0 59488  57822.000000  0   -5991545.261  -3213388.589  -1123203.674
10 0 59488  57942.000000  0   -5892911.628  -2959434.665  -2003628.356
10 0 59488  58062.000000  0   -5686597.597  -2656517.824  -2848849.930
10 0 59488  58182.000000  0   -5375503.133  -2311825.951  -3644065.253
10 0 59488  58302.000000  0   -4964485.917  -1933200.209  -4375382.052
10 0 59488  58422.000000  0   -4460275.625  -1528959.806  -5030059.476
10 0 59488  58542.000000  0   -3871353.167  -1107721.588  -5596725.083
10 0 59488  58662.000000  0   -3207797.810   -678218.364  -6065563.574
10 0 59488  58782.000000  0   -2481107.297   -249120.611  -6428475.533
10 0 59488  58902.000000  0   -1703994.382    171134.809  -6679205.744
10 0 59488  59022.000000  0    -890163.421    574505.500  -6813439.357
10 0 59488  59142.000000  0     -54072.597    953492.745  -6828867.726
10 0 59488  59262.000000  0     789316.437   1301277.030  -6725223.116
10 0 59488  59382.000000  0    1624799.099   1611836.950  -6504285.305
10 0 59488  59502.000000  0    2437196.795   1880052.487  -6169854.952
10 0 59488  59622.000000  0    3211628.171   2101788.876  -5727694.890
10 0 59488  59742.000000  0    3933778.268   2273960.142  -5185439.832
10 0 59488  59862.000000  0    4590163.226   2394572.278  -4552476.894
10 0 59488  59982.000000  0    5168386.725   2462744.870  -3839793.948
10 0 59488  60102.000000  0    5657380.571   2478709.876  -3059797.754
10 0 59488  60222.000000  0    6047625.634   2443787.785  -2226105.788
10 0 59488  60342.000000  0    6331348.786   2360341.216  -1353311.089
10 0 59488  60462.000000  0    6502687.127   2231705.929   -456725.582
10 0 59488  60582.000000  0    6557817.723   2062100.987    447893.408
10 0 59488  60702.000000  0    6495044.999   1856519.191   1344627.539
10 0 59488  60822.000000  0    6314848.488   1620602.711   2217684.212
10 0 59488  60942.000000  0    6019886.657   1360504.662   3051685.018
10 0 59488  61062.000000  0    5614955.223   1082740.952   3831944.380
10 0 59488  61182.000000  0    5106902.351    794036.627   4544734.319
10 0 59488  61302.000000  0    4504503.963    501170.938   5177527.515
10 0 59488  61422.000000  0    3818303.085    210824.513   5719217.988
10 0 59488  61542.000000  0    3060414.564    -70568.425   6160312.986
10 0 59488  61662.000000  0    2244303.316   -336957.332   6493092.664
10 0 59488  61782.000000  0    1384540.733   -582801.361   6711739.699
10 0 59488  61902.000000  0     496540.931   -803182.147   6812436.577
10 0 59488  62022.000000  0    -403717.785   -993900.562   6793427.186
10 0 59488  62142.000000  0   -1299979.949  -1151556.201   6655044.591
10 0 59488  62262.000000  0   -2176005.257  -1273608.089   6399704.651
10 0 59488  62382.000000  0   -3015860.816  -1358415.022   6031866.082
10 0 59488  62502.000000  0   -3804211.359  -1405256.012   5557959.796
10 0 59488  62622.000000  0   -4526604.117  -1414331.591   4986283.206
10 0 59488  62742.000000  0   -5169740.340  -1386744.603   4326860.261
10 0 59488  62862.000000  0   -5721728.075  -1324460.224   3591269.091
10 0 59488  62982.000000  0   -6172309.976  -1230246.137   2792440.774
10 0 59488  63102.000000  0   -6513063.438  -1107594.818   1944433.489
10 0 59488  63222.000000  0   -6737569.223   -960629.391   1062181.846
10 0 59488  63342.000000  0   -6841539.133   -793994.723    161226.333
10 0 59488  63462.000000  0   -6822900.967   -612736.665   -742568.771
10 0 59488  63582.000000  0   -6681839.063   -422172.751  -1633304.005
10 0 59488  63702.000000  0   -6420788.398   -227757.524  -2495332.140
10 0 59488  63822.000000  0   -6044386.090    -34947.036  -3313538.935
10 0 59488  63942.000000  0   -5559378.196    150935.933  -4073613.425
10 0 59488  64062.000000  0   -4974485.005    324831.297  -4762298.031
10 0 59488  64182.000000  0   -4300231.000    482062.949  -5367615.423
10 0 59488  64302.000000  0   -3548743.882    618449.247  -5879069.113
10 0 59488  64422.000000  0   -2733527.085    730399.203  -6287814.872
10 0 59488  64542.000000  0   -1869212.659    814993.940  -6586801.065
10 0 59488  64662.000000  0    -971297.911    870052.269  -6770879.817
10 0 59488  64782.000000  0     -55870.186    894179.166  -6836885.021
10 0 59488  64902.000000  0     860673.849    886796.101  -6783680.074
10 0 59488  65022.000000  0    1761914.260    848153.116  -6612178.042
10 0 59488  65142.000000  0    2631696.482    779322.857  -6325328.105
10 0 59488  65262.000000  0    3454415.747    682176.514  -5928070.013
10 0 59488  65382.000000  0    4215293.534    559341.403  -5427256.957
10 0 59488  65502.000000  0    4900642.817    414140.827  -4831548.842
10 0 59488  65622.000000  0    5498119.273    250517.982  -4151274.294
10 0 59488  65742.000000  0    5996951.677     72943.940  -3398261.262
10 0 59488  65862.000000  0    6388146.338   -113688.019  -2585639.712
10 0 59488  65982.000000  0    6664662.684   -304179.912  -1727617.994
10 0 59488  66102.000000  0    6821552.909   -493155.674   -839234.421
10 0 59488  66222.000000  0    6856061.379   -675193.358     63909.218
10 0 59488  66342.000000  0    6767682.007   -844960.566    965927.351
10 0 59488  66462.000000  0    6558170.301   -997349.342   1850938.189
10 0 59488  66582.000000  0    6231510.630  -1127606.875   2703352.843
10 0 59488  66702.000000  0    5793835.980  -1231458.264   3508159.051
10 0 59488  66822.000000  0    5253306.457  -1305218.367   4251191.327
10 0 59488  66942.000000  0    4619948.302  -1345891.056   4919384.404
10 0 59488  67062.000000  0    3905457.729  -1351251.264   5501003.460
10 0 59488  67182.000000  0    3122975.700  -1319909.094   5985848.513
10 0 59488  67302.000000  0    2286837.554  -1251355.671   6365428.727
10 0 59488  67422.000000  0    1412305.000  -1145989.294   6633105.399
10 0 59488  67542.000000  0     515283.187  -1005121.404   6784202.939
10 0 59488  67662.000000  0    -387970.780   -830961.531   6816084.701
10 0 59488  67782.000000  0   -1281141.923   -626582.694   6728194.813
10 0 59488  67902.000000  0   -2148150.595   -395867.311   6522066.986
10 0 59488  68022.000000  0   -2973440.520   -143434.116   6201299.671
10 0 59488  68142.000000  0   -3742258.414    125452.582   5771498.372
10 0 59488  68262.000000  0   -4440921.279    404989.770   5240183.866
10 0 59488  68382.000000  0   -5057065.718    688957.048   4616666.399
10 0 59488  68502.000000  0   -5579874.903    970850.240   3911887.638
10 0 59488  68622.000000  0   -6000277.064   1244024.845   3138231.434
10 0 59488  68742.000000  0   -6311112.210   1501846.140   2309307.634
10 0 59488  68862.000000  0   -6507263.196   1737842.077   1439710.904
10 0 59488  68982.000000  0   -6585747.799   1945855.927    544758.960
10 0 59488  69102.000000  0   -6545767.358   2120194.571   -359785.563
10 0 59488  69222.000000  0   -6388710.612   2255767.593  -1258001.746
10 0 59488  69342.000000  0   -6118113.759   2348214.510  -2134098.992
10 0 59488  69462.000000  0   -5739578.086   2394017.414  -2972702.715
10 0 59488  69582.000000  0   -5260645.351   2390595.222  -3759130.149
10 0 59488  69702.000000  0   -4690636.495   2336376.881  -4479648.746
10 0 59488  69822.000000  0   -4040458.972   2230852.985  -5121713.139
10 0 59488  69942.000000  0   -3322387.842   2074605.229  -5674176.353
10 0 59488  70062.000000  0   -2549827.468   1869313.574  -6127473.428
10 0 59488  70182.000000  0   -1737057.112   1617740.986  -6473777.065
10 0 59488  70302.000000  0    -898965.024   1323695.975  -6707120.436
10 0 59488  70422.000000  0     -50779.048    991974.324  -6823488.897
10 0 59488  70542.000000  0     792203.519    628281.736  -6820880.870
10 0 59488  70662.000000  0    1614884.907    239137.891  -6699340.814
10 0 59488  70782.000000  0    2402632.120   -168237.985  -6460958.151
10 0 59488  70902.000000  0    3141531.374   -586057.035  -6109835.384
10 0 59488  71022.000000  0    3818631.236  -1006105.197  -5652024.421
10 0 59488  71142.000000  0    4422168.424  -1419899.507  -5095432.580
10 0 59488  71262.000000  0    4941776.446  -1818855.836  -4449698.368
10 0 59488  71382.000000  0    5368670.581  -2194463.952  -3726035.323
10 0 59488  71502.000000  0    5695805.956  -2538466.172  -2937046.607
10 0 59488  71622.000000  0    5918004.836  -2843036.216  -2096511.315
10 0 59488  71742.000000  0    6032048.602  -3100953.897  -1219145.893
10 0 59488  71862.000000  0    6036732.531  -3305771.274   -320345.587
10 0 59488  71982.000000  0    5932880.973  -3451966.378    584090.390
10 0 59488  72102.000000  0    5723322.333  -3535080.325   1478243.410
10 0 59488  72222.000000  0    5412823.038  -3551833.623   2346365.985
10 0 59488  72342.000000  0    5007980.271  -3500217.422   3173167.678
10 0 59488  72462.000000  0    4517079.929  -3379558.863   3944091.540
10 0 59488  72582.000000  0    3949922.885  -3190558.139   4645574.794
99
